[{"OBJECT_NAME":"ALICE","OBJECT_ID":"2013-072F","EPOCH":"2026-03-09T16:03:25.924320","MEAN_MOTION":15.07155655,"ECCENTRICITY":0.01592016,"INCLINATION":120.4625,"RA_OF_ASC_NODE":282.3278,"ARG_OF_PERICENTER":246.5562,"MEAN_ANOMALY":111.8695,"EPHEMERIS_TYPE":0,"CLASSIFICATION_TYPE":"U","NORAD_CAT_ID":39467,"ELEMENT_SET_NO":999,"REV_AT_EPOCH":10026,"BSTAR":0.00062398338,"MEAN_MOTION_DOT":0.00012311,"MEAN_MOTION_DDOT":0},{"OBJECT_NAME":"STARLINK-32114","OBJECT_ID":"2024-132K","EPOCH":"2026-03-09T22:27:23.080320","MEAN_MOTION":15.30189887,"ECCENTRICITY":0.00012602,"INCLINATION":53.161,"RA_OF_ASC_NODE":51.5983,"ARG_OF_PERICENTER":90.0638,"MEAN_ANOMALY":270.0508,"EPHEMERIS_TYPE":0,"CLASSIFICATION_TYPE":"U","NORAD_CAT_ID":60287,"ELEMENT_SET_NO":999,"REV_AT_EPOCH":9159,"BSTAR":-2.22576e-6,"MEAN_MOTION_DOT":-4.25e-6,"MEAN_MOTION_DDOT":0}]
